start=new Date('2021-09-06T00:00:00.000Z').valueOf();
sats=[{"MEAN_ANOMALY":"73.6755","OBJECT_ID":"2021-012D","MEAN_MOTION_DOT":"0.00039410","TIME_SYSTEM":"UTC","ARG_OF_PERICENTER":"63.2807","FILE":"3109348","ECCENTRICITY":"0.00019230","CLASSIFICATION_TYPE":"U","APOAPSIS":"548.646","COUNTRY_CODE":"US","EPHEMERIS_TYPE":"0","PERIOD":"95.594","RCS_SIZE":"LARGE","EPOCH":"2021-09-05T18:00:00.999648","TLE_LINE1":"1 47623U 21012D   21248.75001157  .00039410  00000-0  26522-2 0  9997","DECAY_DATE":null,"GP_ID":"184166091","TLE_LINE2":"2 47623  53.0535 195.5135 0001923  63.2807  73.6755 15.06367071  3580","NORAD_CAT_ID":"47623","OBJECT_TYPE":"PAYLOAD","MEAN_MOTION_DDOT":"0.0000000000000","INCLINATION":"53.0535","CENTER_NAME":"EARTH","SEMIMAJOR_AXIS":"6925.449","ELEMENT_SET_NO":"999","REV_AT_EPOCH":"358","OBJECT_NAME":"STARLINK-1655","SITE":"AFETR","LAUNCH_DATE":"2021-02-16","REF_FRAME":"TEME","RA_OF_ASC_NODE":"195.5135","MEAN_MOTION":"15.06367071","MEAN_ELEMENT_THEORY":"SGP4","BSTAR":"0.00265220000000","PERIAPSIS":"545.983"},{"PERIAPSIS":"546.387","BSTAR":"0.00036770000000","MEAN_ELEMENT_THEORY":"SGP4","MEAN_MOTION":"15.06388917","RA_OF_ASC_NODE":"240.5190","REF_FRAME":"TEME","LAUNCH_DATE":"2021-02-16","SITE":"AFETR","REV_AT_EPOCH":"359","OBJECT_NAME":"STARLINK-1669","SEMIMAJOR_AXIS":"6925.383","ELEMENT_SET_NO":"999","CENTER_NAME":"EARTH","INCLINATION":"53.0527","OBJECT_TYPE":"PAYLOAD","MEAN_MOTION_DDOT":"0.0000000000000","NORAD_CAT_ID":"47624","TLE_LINE2":"2 47624  53.0527 240.5190 0001242  74.9758  94.4414 15.06388917  3598","GP_ID":"184166338","DECAY_DATE":null,"TLE_LINE1":"1 47624U 21012E   21248.75001157  .00005198  00000-0  36770-3 0  9991","RCS_SIZE":"LARGE","EPOCH":"2021-09-05T18:00:00.999648","PERIOD":"95.593","EPHEMERIS_TYPE":"0","COUNTRY_CODE":"US","APOAPSIS":"548.108","ECCENTRICITY":"0.00012420","CLASSIFICATION_TYPE":"U","ARG_OF_PERICENTER":"74.9758","FILE":"3109348","MEAN_MOTION_DOT":"0.00005198","TIME_SYSTEM":"UTC","OBJECT_ID":"2021-012E","MEAN_ANOMALY":"94.4414"},{"TIME_SYSTEM":"UTC","MEAN_MOTION_DOT":"-0.00023756","OBJECT_ID":"2021-012F","MEAN_ANOMALY":"88.5259","COUNTRY_CODE":"US","APOAPSIS":"548.182","CLASSIFICATION_TYPE":"U","ECCENTRICITY":"0.00014050","FILE":"3109348","ARG_OF_PERICENTER":"70.8856","EPOCH":"2021-09-05T18:00:00.999648","RCS_SIZE":"LARGE","PERIOD":"95.592","EPHEMERIS_TYPE":"0","GP_ID":"184165590","TLE_LINE2":"2 47625  53.0531 260.5225 0001405  70.8856  88.5259 15.06401503  3587","NORAD_CAT_ID":"47625","DECAY_DATE":null,"TLE_LINE1":"1 47625U 21012F   21248.75001157 -.00023756  00000-0 -15812-2 0  9997","CENTER_NAME":"EARTH","INCLINATION":"53.0531","MEAN_MOTION_DDOT":"0.0000000000000","OBJECT_TYPE":"PAYLOAD","SITE":"AFETR","OBJECT_NAME":"STARLINK-1704","REV_AT_EPOCH":"358","SEMIMAJOR_AXIS":"6925.344","ELEMENT_SET_NO":"999","MEAN_MOTION":"15.06401503","RA_OF_ASC_NODE":"260.5225","REF_FRAME":"TEME","LAUNCH_DATE":"2021-02-16","PERIAPSIS":"546.236","BSTAR":"-0.00158120000000","MEAN_ELEMENT_THEORY":"SGP4"},{"MEAN_ANOMALY":"174.6067","OBJECT_ID":"2021-012G","MEAN_MOTION_DOT":"-0.00025585","TIME_SYSTEM":"UTC","ARG_OF_PERICENTER":"64.6905","FILE":"3109348","ECCENTRICITY":"0.00013550","CLASSIFICATION_TYPE":"U","APOAPSIS":"548.115","COUNTRY_CODE":"US","EPHEMERIS_TYPE":"0","PERIOD":"95.591","RCS_SIZE":"LARGE","EPOCH":"2021-09-05T18:00:00.999648","TLE_LINE1":"1 47626U 21012G   21248.75001157 -.00025585  00000-0 -17043-2 0  9998","DECAY_DATE":null,"TLE_LINE2":"2 47626  53.0522 260.5157 0001355  64.6905 174.6067 15.06412149  3584","NORAD_CAT_ID":"47626","GP_ID":"184165840","OBJECT_TYPE":"PAYLOAD","MEAN_MOTION_DDOT":"0.0000000000000","INCLINATION":"53.0522","CENTER_NAME":"EARTH","SEMIMAJOR_AXIS":"6925.311","ELEMENT_SET_NO":"999","REV_AT_EPOCH":"358","OBJECT_NAME":"STARLINK-1761","SITE":"AFETR","LAUNCH_DATE":"2021-02-16","REF_FRAME":"TEME","RA_OF_ASC_NODE":"260.5157","MEAN_MOTION":"15.06412149","MEAN_ELEMENT_THEORY":"SGP4","BSTAR":"-0.00170430000000","PERIAPSIS":"546.238"},{"FILE":"3109348","ARG_OF_PERICENTER":"7.6378","CLASSIFICATION_TYPE":"U","ECCENTRICITY":"0.00037380","APOAPSIS":"352.395","COUNTRY_CODE":"US","MEAN_ANOMALY":"195.1420","OBJECT_ID":"2021-012H","TIME_SYSTEM":"UTC","MEAN_MOTION_DOT":"0.00077024","TLE_LINE1":"1 47627U 21012H   21248.75001157  .00077024  00000-0  54893-3 0  9997","DECAY_DATE":null,"TLE_LINE2":"2 47627  53.0425 179.4063 0003738   7.6378 195.1420 15.73158119  3690","NORAD_CAT_ID":"47627","GP_ID":"184166592","EPHEMERIS_TYPE":"0","PERIOD":"91.536","EPOCH":"2021-09-05T18:00:00.999648","RCS_SIZE":"LARGE","ELEMENT_SET_NO":"999","SEMIMAJOR_AXIS":"6728.015","OBJECT_NAME":"STARLINK-1972","REV_AT_EPOCH":"369","SITE":"AFETR","MEAN_MOTION_DDOT":"0.0000000000000","OBJECT_TYPE":"PAYLOAD","INCLINATION":"53.0425","CENTER_NAME":"EARTH","MEAN_ELEMENT_THEORY":"SGP4","BSTAR":"0.00054893000000","PERIAPSIS":"347.365","LAUNCH_DATE":"2021-02-16","REF_FRAME":"TEME","RA_OF_ASC_NODE":"179.4063","MEAN_MOTION":"15.73158119"},{"INCLINATION":"53.0537","OBJECT_TYPE":"PAYLOAD","MEAN_MOTION_DDOT":"0.0000000000000","CENTER_NAME":"EARTH","REV_AT_EPOCH":"359","OBJECT_NAME":"STARLINK-1973","SEMIMAJOR_AXIS":"6925.353","ELEMENT_SET_NO":"999","SITE":"AFETR","REF_FRAME":"TEME","LAUNCH_DATE":"2021-02-16","RA_OF_ASC_NODE":"260.5261","MEAN_MOTION":"15.06398533","MEAN_ELEMENT_THEORY":"SGP4","PERIAPSIS":"546.443","BSTAR":"-0.00160900000000","OBJECT_ID":"2021-012J","MEAN_ANOMALY":"320.3082","MEAN_MOTION_DOT":"-0.00024165","TIME_SYSTEM":"UTC","ECCENTRICITY":"0.00011190","CLASSIFICATION_TYPE":"U","ARG_OF_PERICENTER":"79.1097","FILE":"3109348","COUNTRY_CODE":"US","APOAPSIS":"547.993","PERIOD":"95.592","EPHEMERIS_TYPE":"0","RCS_SIZE":"LARGE","EPOCH":"2021-09-05T18:00:00.999648","TLE_LINE1":"1 47628U 21012J   21248.75001157 -.00024165  00000-0 -16090-2 0  9994","GP_ID":"184166839","TLE_LINE2":"2 47628  53.0537 260.5261 0001119  79.1097 320.3082 15.06398533  3597","NORAD_CAT_ID":"47628","DECAY_DATE":null},{"SITE":"AFETR","ELEMENT_SET_NO":"999","SEMIMAJOR_AXIS":"6728.039","REV_AT_EPOCH":"369","OBJECT_NAME":"STARLINK-1974","CENTER_NAME":"EARTH","OBJECT_TYPE":"PAYLOAD","MEAN_MOTION_DDOT":"0.0000000000000","INCLINATION":"53.0426","BSTAR":"0.00055539000000","PERIAPSIS":"347.310","MEAN_ELEMENT_THEORY":"SGP4","MEAN_MOTION":"15.73149696","RA_OF_ASC_NODE":"179.4075","LAUNCH_DATE":"2021-02-16","REF_FRAME":"TEME","APOAPSIS":"352.497","COUNTRY_CODE":"US","ARG_OF_PERICENTER":"4.9655","FILE":"3109348","ECCENTRICITY":"0.00038550","CLASSIFICATION_TYPE":"U","MEAN_MOTION_DOT":"0.00077919","TIME_SYSTEM":"UTC","MEAN_ANOMALY":"199.0419","OBJECT_ID":"2021-012K","DECAY_DATE":null,"TLE_LINE2":"2 47629  53.0426 179.4075 0003855   4.9655 199.0419 15.73149696  3695","NORAD_CAT_ID":"47629","GP_ID":"184165090","TLE_LINE1":"1 47629U 21012K   21248.75001157  .00077919  00000-0  55539-3 0  9990","RCS_SIZE":"LARGE","EPOCH":"2021-09-05T18:00:00.999648","EPHEMERIS_TYPE":"0","PERIOD":"91.536"},{"DECAY_DATE":null,"GP_ID":"184165340","TLE_LINE2":"2 47630  53.0522 240.5149 0001244  59.0774 355.3216 15.06398529  3597","NORAD_CAT_ID":"47630","TLE_LINE1":"1 47630U 21012L   21248.75001157  .00004612  00000-0  32830-3 0  9991","RCS_SIZE":"LARGE","EPOCH":"2021-09-05T18:00:00.999648","EPHEMERIS_TYPE":"0","PERIOD":"95.592","APOAPSIS":"548.080","COUNTRY_CODE":"US","ARG_OF_PERICENTER":"59.0774","FILE":"3109348","ECCENTRICITY":"0.00012440","CLASSIFICATION_TYPE":"U","MEAN_MOTION_DOT":"0.00004612","TIME_SYSTEM":"UTC","MEAN_ANOMALY":"355.3216","OBJECT_ID":"2021-012L","BSTAR":"0.00032830000000","PERIAPSIS":"546.357","MEAN_ELEMENT_THEORY":"SGP4","RA_OF_ASC_NODE":"240.5149","MEAN_MOTION":"15.06398529","LAUNCH_DATE":"2021-02-16","REF_FRAME":"TEME","SITE":"AFETR","SEMIMAJOR_AXIS":"6925.353","ELEMENT_SET_NO":"999","REV_AT_EPOCH":"359","OBJECT_NAME":"STARLINK-1983","CENTER_NAME":"EARTH","OBJECT_TYPE":"PAYLOAD","MEAN_MOTION_DDOT":"0.0000000000000","INCLINATION":"53.0522"},{"REV_AT_EPOCH":"369","OBJECT_NAME":"STARLINK-1985","SEMIMAJOR_AXIS":"6727.986","ELEMENT_SET_NO":"999","SITE":"AFETR","INCLINATION":"53.0428","OBJECT_TYPE":"PAYLOAD","MEAN_MOTION_DDOT":"0.0000000000000","CENTER_NAME":"EARTH","MEAN_ELEMENT_THEORY":"SGP4","PERIAPSIS":"347.371","BSTAR":"0.00052206000000","REF_FRAME":"TEME","LAUNCH_DATE":"2021-02-16","RA_OF_ASC_NODE":"179.4201","MEAN_MOTION":"15.73168000","ECCENTRICITY":"0.00036860","CLASSIFICATION_TYPE":"U","ARG_OF_PERICENTER":"7.6417","FILE":"3109348","COUNTRY_CODE":"US","APOAPSIS":"352.331","OBJECT_ID":"2021-012M","MEAN_ANOMALY":"191.9111","MEAN_MOTION_DOT":"0.00073220","TIME_SYSTEM":"UTC","TLE_LINE1":"1 47631U 21012M   21248.75001157  .00073220  00000-0  52206-3 0  9992","TLE_LINE2":"2 47631  53.0428 179.4201 0003686   7.6417 191.9111 15.73168000  3699","NORAD_CAT_ID":"47631","GP_ID":"184166092","DECAY_DATE":null,"PERIOD":"91.535","EPHEMERIS_TYPE":"0","RCS_SIZE":"MEDIUM","EPOCH":"2021-09-05T18:00:00.999648"},{"EPOCH":"2021-09-05T18:00:00.999648","RCS_SIZE":"LARGE","PERIOD":"91.535","EPHEMERIS_TYPE":"0","GP_ID":"184166339","TLE_LINE2":"2 47632  53.0426 179.4071 0003613   3.7383 199.6507 15.73167854  3692","NORAD_CAT_ID":"47632","DECAY_DATE":null,"TLE_LINE1":"1 47632U 21012N   21248.75001157  .00077239  00000-0  55022-3 0  9996","TIME_SYSTEM":"UTC","MEAN_MOTION_DOT":"0.00077239","OBJECT_ID":"2021-012N","MEAN_ANOMALY":"199.6507","COUNTRY_CODE":"US","APOAPSIS":"352.283","CLASSIFICATION_TYPE":"U","ECCENTRICITY":"0.00036130","FILE":"3109348","ARG_OF_PERICENTER":"3.7383","RA_OF_ASC_NODE":"179.4071","MEAN_MOTION":"15.73167854","REF_FRAME":"TEME","LAUNCH_DATE":"2021-02-16","PERIAPSIS":"347.421","BSTAR":"0.00055022000000","MEAN_ELEMENT_THEORY":"SGP4","CENTER_NAME":"EARTH","INCLINATION":"53.0426","MEAN_MOTION_DDOT":"0.0000000000000","OBJECT_TYPE":"PAYLOAD","SITE":"AFETR","OBJECT_NAME":"STARLINK-1992","REV_AT_EPOCH":"369","SEMIMAJOR_AXIS":"6727.987","ELEMENT_SET_NO":"999"}];
